OBJECT_NAME,OBJECT_ID,EPOCH,MEAN_MOTION,ECCENTRICITY,INCLINATION,RA_OF_ASC_NODE,ARG_OF_PERICENTER,MEAN_ANOMALY,EPHEMERIS_TYPE,CLASSIFICATION_TYPE,NORAD_CAT_ID,ELEMENT_SET_NO,REV_AT_EPOCH,BSTAR,MEAN_MOTION_DOT,MEAN_MOTION_DDOT
CHUANGXIN 1-02 (CX-1-02),2008-056B,2026-07-04T07:09:41.746176,14.30156825,.00155372,98.6124,211.3943,89.9365,270.3598,0,U,33434,999,92106,.49058545E-4,.83E-6,0
STARS (KUKAI),2009-002G,2026-07-03T19:24:52.319232,14.95867721,.00102919,98.1560,132.7971,111.0617,249.1704,0,U,33498,999,94096,.48681441E-3,.5386E-4,0
KKS-1 (KISEKI),2009-002H,2026-07-04T06:11:18.235680,14.83168983,.00066355,98.1181,107.9705,228.4343,131.6302,0,U,33499,999,93872,.20292668E-3,.16E-4,0
UK-DMC 2,2009-041C,2026-07-04T07:24:29.433600,14.76080372,.00013091,97.8863,319.8582,99.8049,260.3308,0,U,35683,999,90909,.63033624E-4,.385E-5,0
OCEANSAT-2,2009-051A,2026-07-04T06:49:57.907200,13.99658639,.00165881,98.2318,170.4295,185.2404,174.8591,0,U,35931,999,88172,-.1144309E-3,-.205E-5,0
SWISSCUBE,2009-051B,2026-07-04T04:54:22.403808,14.62515164,.00072032,98.4022,93.3885,149.3309,210.8314,0,U,35932,999,89164,.24944454E-3,.1216E-4,0
BEESAT-1,2009-051C,2026-07-04T00:25:02.099424,14.61748287,.00053974,98.3948,92.7981,160.6033,199.5374,0,U,35933,999,89164,.21141658E-3,.1005E-4,0
ITUPSAT1,2009-051E,2026-07-04T00:33:09.275328,14.60466234,.00072743,98.4031,91.9778,176.2481,183.8774,0,U,35935,999,89119,.19967095E-3,.919E-5,0
DMSP 5D-3 F18 (USA 210),2009-057A,2026-07-04T04:24:21.244608,14.14906534,.00105612,98.9047,165.9163,197.1021,162.9797,0,U,35951,999,86199,.17410507E-3,.292E-5,0
PROBA-2,2009-059B,2026-07-04T05:28:19.935264,14.54870040,.00123061,98.2455,8.3448,224.1448,135.8768,0,U,36037,999,88400,.64992774E-4,.234E-5,0
YAOGAN-7,2009-069A,2026-07-03T22:42:01.287072,14.78027131,.00243255,98.0049,70.7079,348.6785,11.3875,0,U,36110,999,89210,.87968274E-4,.585E-5,0
XIWANG-1 (HOPE-1),2009-072B,2026-07-04T06:25:27.906240,13.16438855,.00072347,100.4037,138.8279,190.0667,170.0302,0,U,36122,999,79525,-.68427574E-3,-.306E-5,0
COSMOS 2463,2010-017A,2026-07-03T22:00:47.631744,13.71666695,.00375854,82.9591,237.4143,84.1068,89.0765,0,U,36519,999,81022,.36542433E-4,.49E-6,0
CARTOSAT-2B,2010-035A,2026-07-04T07:47:52.217088,14.78607147,.00121975,97.9940,235.7652,130.5157,229.7119,0,U,36795,999,86238,.11785113E-3,.811E-5,0
TISAT 1,2010-035E,2026-07-04T02:22:33.009888,15.32370089,.00035949,98.0712,133.1565,140.6346,219.5156,0,U,36799,999,87029,.90078974E-3,.28145E-3,0
YAOGAN-10,2010-038A,2026-07-04T07:58:56.345376,14.85402465,.00017346,97.8967,208.6004,82.1846,8.9763,0,U,36834,999,85975,.19290915E-3,.1607E-4,0
SHIJIAN-6 04B (SJ-6 04B),2010-051B,2026-07-04T07:23:26.663136,14.99369295,.00068627,97.8726,190.8988,250.7657,109.2824,0,U,37180,999,85824,.12971826E-3,.1526E-4,0
FENGYUN 3B,2010-059A,2026-07-04T08:18:44.328096,14.14846019,.00228138,98.9605,231.4332,136.0996,281.9488,0,U,37214,999,80985,.25444513E-3,.447E-5,0
COSMO-SKYMED 4,2010-060A,2026-07-04T07:42:47.168064,14.82157373,.00014372,97.8887,8.6719,85.7503,274.3874,0,U,37216,999,84710,.11233956E-4,.37E-6,0
O/OREOS (USA 219),2010-062C,2026-07-04T00:07:25.238208,14.93816217,.00132939,71.9706,42.2417,27.4238,332.7631,0,U,37224,999,11915,.25947043E-3,.2697E-4,0
RESOURCESAT-2,2011-015A,2026-07-04T06:17:53.792160,14.21604091,.00109474,98.7637,252.5858,202.5480,157.5217,0,U,37387,999,78860,.67349999E-4,.103E-5,0
YOUTHSAT,2011-015B,2026-07-04T04:49:56.328096,14.25637242,.00133325,98.3693,158.4890,294.5669,76.1928,0,U,37388,999,79006,.10534841E-3,.208E-5,0
APRIZESAT 6,2011-044F,2026-07-04T00:12:27.163872,14.76943409,.00439113,98.2349,95.8509,33.6747,347.0397,0,U,37793,999,79963,.14683996E-3,.993E-5,0
JUGNU,2011-058B,2026-07-04T05:44:04.099776,14.13780966,.00183305,19.9588,204.8324,264.7151,174.5113,0,U,37839,999,76144,.72425564E-4,.406E-5,0
SRMSAT,2011-058D,2026-07-04T01:35:48.804576,14.11579192,.00118515,19.9730,317.3057,29.9608,142.1060,0,U,37841,999,76020,.7032809E-4,.394E-5,0
