CHUANGXIN 1-02 (CX-1-02)
1 33434U 08056B   26185.29839984  .00000083  00000+0  49059-4 0  9991
2 33434  98.6124 211.3943 0015537  89.9365 270.3598 14.30156825921060
STARS (KUKAI)           
1 33498U 09002G   26184.80893888  .00005386  00000+0  48681-3 0  9992
2 33498  98.1560 132.7971 0010291 111.0617 249.1704 14.95867721940963
KKS-1 (KISEKI)          
1 33499U 09002H   26185.25784995  .00001600  00000+0  20293-3 0  9995
2 33499  98.1181 107.9705 0006635 228.4343 131.6302 14.83168983938729
UK-DMC 2                
1 35683U 09041C   26185.30867400  .00000385  00000+0  63034-4 0  9994
2 35683  97.8863 319.8582 0001309  99.8049 260.3308 14.76080372909093
OCEANSAT-2              
1 35931U 09051A   26185.28469800 -.00000205  00000+0 -11443-3 0  9999
2 35931  98.2318 170.4295 0016588 185.2404 174.8591 13.99658639881724
SWISSCUBE               
1 35932U 09051B   26185.20442597  .00001216  00000+0  24944-3 0  9997
2 35932  98.4022  93.3885 0007203 149.3309 210.8314 14.62515164891648
BEESAT-1                
1 35933U 09051C   26185.01738541  .00001005  00000+0  21142-3 0  9997
2 35933  98.3948  92.7981 0005397 160.6033 199.5374 14.61748287891649
ITUPSAT1                
1 35935U 09051E   26185.02302402  .00000919  00000+0  19967-3 0  9998
2 35935  98.4031  91.9778 0007274 176.2481 183.8774 14.60466234891194
DMSP 5D-3 F18 (USA 210) 
1 35951U 09057A   26185.18357922  .00000292  00000+0  17411-3 0  9992
2 35951  98.9047 165.9163 0010561 197.1021 162.9797 14.14906534861998
PROBA-2                 
1 36037U 09059B   26185.22800851  .00000234  00000+0  64993-4 0  9993
2 36037  98.2455   8.3448 0012306 224.1448 135.8768 14.54870040884009
YAOGAN-7                
1 36110U 09069A   26184.94584823  .00000585  00000+0  87968-4 0  9998
2 36110  98.0049  70.7079 0024325 348.6785  11.3875 14.78027131892109
XIWANG-1 (HOPE-1)       
1 36122U 09072B   26185.26768410 -.00000306  00000+0 -68428-3 0  9999
2 36122 100.4037 138.8279 0007234 190.0667 170.0302 13.16438855795259
COSMOS 2463             
1 36519U 10017A   26184.91721796  .00000049  00000+0  36542-4 0  9992
2 36519  82.9591 237.4143 0037585  84.1068  89.0765 13.71666695810227
CARTOSAT-2B             
1 36795U 10035A   26185.32490992  .00000811  00000+0  11785-3 0  9993
2 36795  97.9940 235.7652 0012197 130.5157 229.7119 14.78607147862385
TISAT 1                 
1 36799U 10035E   26185.09899317  .00028145  00000+0  90079-3 0  9998
2 36799  98.0712 133.1565 0003594 140.6346 219.5156 15.32370089870295
YAOGAN-10               
1 36834U 10038A   26185.33259659  .00001607  00000+0  19291-3 0  9998
2 36834  97.8967 208.6004 0001734  82.1846   8.9763 14.85402465859752
SHIJIAN-6 04B (SJ-6 04B)
1 37180U 10051B   26185.30794749  .00001526  00000+0  12972-3 0  9998
2 37180  97.8726 190.8988 0006862 250.7657 109.2824 14.99369295858247
FENGYUN 3B              
1 37214U 10059A   26185.34634639  .00000447  00000+0  25445-3 0  9999
2 37214  98.9605 231.4332 0022813 136.0996 281.9488 14.14846019809852
COSMO-SKYMED 4          
1 37216U 10060A   26185.32137926  .00000037  00000+0  11234-4 0  9995
2 37216  97.8887   8.6719 0001437  85.7503 274.3874 14.82157373847108
O/OREOS (USA 219)       
1 37224U 10062C   26185.00515322  .00002697  00000+0  25947-3 0  9990
2 37224  71.9706  42.2417 0013293  27.4238 332.7631 14.93816217119158
RESOURCESAT-2           
1 37387U 11015A   26185.26242815  .00000103  00000+0  67350-4 0  9996
2 37387  98.7637 252.5858 0010947 202.5480 157.5217 14.21604091788602
YOUTHSAT                
1 37388U 11015B   26185.20134639  .00000208  00000+0  10535-3 0  9993
2 37388  98.3693 158.4890 0013332 294.5669  76.1928 14.25637242790068
APRIZESAT 6             
1 37793U 11044F   26185.00864773  .00000993  00000+0  14684-3 0  9992
2 37793  98.2349  95.8509 0043911  33.6747 347.0397 14.76943409799634
JUGNU                   
1 37839U 11058B   26185.23893634  .00000406  00000+0  72426-4 0  9999
2 37839  19.9588 204.8324 0018330 264.7151 174.5113 14.13780966761445
SRMSAT                  
1 37841U 11058D   26185.06653709  .00000394  00000+0  70328-4 0  9995
2 37841  19.9730 317.3057 0011851  29.9608 142.1060 14.11579192760209
